METEOR-M2 2             
1 44387U 19038A   19210.90197187 -.00000035  00000-0  35973-5 0  9993
2 44387  98.5705 173.3178 0002334  43.7115 316.4248 14.23333296  3507
2019-038B               
1 44388U 19038B   19210.84761950  .00001360  00000-0  12591-3 0  9992
2 44388  97.6856 172.5304 0022922 158.1829 202.0373 14.95957649  3664
ICEYE-X5                
1 44389U 19038C   19210.50516234  .00000531  00000-0  51698-4 0  9990
2 44389  97.6834 172.1898 0021774 151.8532 208.3871 14.96431838  3615
ICEYE-X4                
1 44390U 19038D   19210.90555716  .00000503  00000-0  49232-4 0  9994
2 44390  97.6813 172.5746 0021564 150.8366 209.4065 14.96481371  3671
2019-038E               
1 44391U 19038E   19210.90442101  .00000747  00000-0  70504-4 0  9994
2 44391  97.6832 172.5856 0021581 150.9707 209.2720 14.96553101  3592
VDNH-80                 
1 44392U 19038G   19209.92333387  .00000423  00000-0  28154-4 0  9995
2 44392  97.4914 171.4319 0022236 165.0285 195.1609 15.12198977  3426
2019-038H               
1 44393U 19038H   19210.85152227  .00000389  00000-0  26263-4 0  9992
2 44393  97.4915 172.3387 0022672 161.7390 198.4659 15.12086960  3684
AMGU-1 (AMURSAT)        
1 44394U 19038J   19209.92619606  .00000381  00000-0  25801-4 0  9997
2 44394  97.4914 171.4281 0022611 165.2347 194.9548 15.12014246  3542
2019-038K               
1 44395U 19038K   19209.93213424  .00000149  00000-0  12522-4 0  9995
2 44395  97.4900 171.4221 0025823 161.8024 198.4136 15.11628007  3530
LEMUR-2-LILLYJO         
1 44396U 19038L   19210.19419062  .00000797  00000-0  50087-4 0  9999
2 44396  97.4889 171.6806 0025400 159.9443 200.2791 15.11816847  3576
2019-038M               
1 44397U 19038M   19209.93384771  .00000328  00000-0  23013-4 0  9997
2 44397  97.4914 171.4177 0026296 159.8134 200.4142 15.11522779  3542
2019-038N               
1 44398U 19038N   19209.93290945  .00000433  00000-0  29132-4 0  9992
2 44398  97.4905 171.4233 0025996 161.5597 198.6582 15.11586658  3547
2019-038P               
1 44399U 19038P   19209.93243995  .00000195  00000-0  15205-4 0  9997
2 44399  97.4917 171.4214 0025319 166.1692 194.0237 15.11609340  3547
2019-038Q               
1 44400U 19038Q   19209.93211133  .00000164  00000-0  13401-4 0  9991
2 44400  97.4915 171.4204 0025921 159.9392 200.2863 15.11630040  3549
2019-038R               
1 44401U 19038R   19209.93069662  .00000380  00000-0  25954-4 0  9996
2 44401  97.4915 171.4221 0025754 159.5909 200.6357 15.11725915  3541
LEMUR-2-WANLI           
1 44402U 19038S   19210.45985729  .00000688  00000-0  43831-4 0  9992
2 44402  97.4895 171.9410 0025555 159.2565 200.9709 15.11754676  3627
LEMUR-2-MORAG           
1 44403U 19038T   19210.19504294  .00000695  00000-0  44295-4 0  9991
2 44403  97.4926 171.6806 0024228 163.2766 196.9269 15.11760778  3583
LEMUR-2-YNDRD           
1 44404U 19038U   19209.86297379  .00000416  00000-0  27969-4 0  9997
2 44404  97.4914 171.3592 0022887 166.0973 194.0893 15.11823881  3532
LEMUR-2-DUSTINTHEWIND   
1 44405U 19038V   19209.86265751  .00000564  00000-0  36521-4 0  9995
2 44405  97.4882 171.3550 0025373 160.9062 199.3125 15.11849328  3536
LUCKY-7                 
1 44406U 19038W   19209.86307997  .00000242  00000-0  17875-4 0  9999
2 44406  97.4915 171.3592 0025380 160.0688 200.1540 15.11814214  3520
LEMUR-2-ALEX-MADDY      
1 44407U 19038X   19209.86369632  .00000386  00000-0  26294-4 0  9998
2 44407  97.4920 171.3544 0024153 164.8638 195.3320 15.11778286  3527
MOMENTUS-X1             
1 44408U 19038Y   19210.45804295  .00000141  00000-0  11993-4 0  9994
2 44408  97.4910 171.9361 0023952 163.2381 196.9647 15.11856006  3621
LEMUR-2-EJATTA          
1 44409U 19038Z   19210.85432144  .00000869  00000-0  54159-4 0  9997
2 44409  97.4878 172.3277 0025356 157.2026 203.0336 15.11926764  3685
2019-038AA              
1 44410U 19038AA  19210.12636206  .00000576  00000-0  37188-4 0  9992
2 44410  97.4915 171.6206 0022970 164.4807 195.7133 15.11913924  3573
LEMUR-2-GREGROBINSON    
1 44411U 19038AB  19210.13000554  .00000618  00000-0  39889-4 0  9992
2 44411  97.4933 171.6163 0024285 164.1445 196.0551 15.11682958  3244
2019-038AC              
1 44412U 19038AC  19209.86397476  .00000357  00000-0  24611-4 0  9990
2 44412  97.4913 171.3579 0023343 165.4258 194.7650 15.11758744  3221
2019-038AD              
1 44413U 19038AD  19210.45846373  .00000696  00000-0  44254-4 0  9994
2 44413  97.4915 171.9379 0024072 162.6038 197.6022 15.11845471  3626
2019-038AE              
1 44414U 19038AE  19210.85573869  .00000277  00000-0  19903-4 0  9994
2 44414  97.4917 172.3342 0024473 162.6218 197.5856 15.11823349  3218
JAISAT-1                
1 44419U 19038F   19209.92243764  .00000367  00000-0  24849-4 0  9998
2 44419  97.4916 171.4334 0022186 165.0206 195.1687 15.12255593  3549
LIGHTSAIL 2             
1 44420U 19036AC  19210.46997986  .00003241  00000-0  72685-3 0  9995
2 44420  24.0040 349.8543 0014257 215.6859 144.2734 14.52565146  3105
COSMOS 2535             
1 44421U 19039A   19211.05733734  .00000406  00000-0  54842-4 0  9990
2 44421  97.8811 262.8148 0009481 255.0681 104.9486 14.84277195  2766
COSMOS 2536             
1 44422U 19039B   19210.78875204  .00000537  00000-0  70850-4 0  9991
2 44422  97.8717 262.5135 0007915 244.8869 115.1514 14.84062576  2838
COSMOS 2537             
1 44423U 19039C   19210.72602802  .00000938  00000-0  11995-3 0  9997
2 44423  97.8843 262.4884 0009014 232.4468 127.5925 14.83700352  2810
COSMOS 2538             
1 44424U 19039D   19210.99002706 -.00000213  00000-0 -17524-4 0  9997
2 44424  97.8820 262.7453 0014807 192.5015 167.6569 14.87107724  2852
VOLGA R/B               
1 44425U 19039E   19208.07525010  .00000279  00000-0  14389-4 0  9998
2 44425  97.6133 263.4135 0025377  23.2276  58.4739 15.24398410  2252
SWIATOWID               
1 44426U 98067QL  19209.84318103  .00006879  00000-0  12044-3 0  9993
2 44426  51.6410 154.4752 0004147 181.5588 178.5390 15.51835297  3977
KRAKSAT                 
1 44427U 98067QM  19210.31885571  .00002941  00000-0  56127-4 0  9993
2 44427  51.6429 152.1122 0004150 175.9322 319.4754 15.51720936  4087
VCC A                   
1 44428U 98067QN  19210.09839124  .00004201  00000-0  76291-4 0  9997
2 44428  51.6413 153.1799 0002877 199.9155 160.1723 15.51930837  4053
VCC B                   
1 44429U 98067QP  19210.09793230  .00004947  00000-0  88340-4 0  9990
2 44429  51.6413 153.1771 0002883 188.5904 171.5037 15.51978163  4055
VCC C                   
1 44430U 98067QQ  19210.09840061  .00002984  00000-0  56438-4 0  9999
2 44430  51.6416 153.1757 0003301 197.9225 162.1648 15.51921787  2872
ENTRYSAT                
1 44431U 98067QR  19209.13298224  .00004282  00000-0  77722-4 0  9993
2 44431  51.6410 157.9818 0003188 194.8637 165.2260 15.51893802  3841
SOYUZ-MS 13             
1 44437U 19041A   19209.36461885  .00000444  00000-0  15350-4 0  9999
2 44437  51.6432 156.9726 0006415 187.1862 315.8077 15.51005864181646
SL-4 DEB                
1 44439U 19041C   19201.93957084  .00694249  12233-4  10000-3 0  9990
2 44439  51.5972 193.6022 0023036  47.3554  48.0010 16.32998775    33
CHANDRAYAAN 2           
1 44441U 19042A   19210.02488486  .00000540  00000-0  10000-3 0  9999
2 44441  21.4416  16.3979 8056557 182.2677 167.4680  1.39244477    93
GSLV R/B                
1 44442U 19042B   19206.52753982  .00021060  50045-6  22244-3 0  9999
2 44442  21.4049  17.1230 7753459 180.3553 178.3799  1.75506487    62
2019-043A               
1 44443U 19043A   19210.78721546  .00670652  20627-3  13039-2 0  9993
2 44443  42.7291 339.4598 0014204 314.3182 203.1500 15.99254316   736
DRAGON CRS-18           
1 44446U 19044A   19209.36461885  .00000444  00000-0  15350-4 0  9992
2 44446  51.6432 156.9726 0006415 187.1862 315.8077 15.51005864181646
DRAGON CRS-18 DEB       
1 44447U 19044B   19210.85251330  .01866224  11594-4  13498-2 0  9991
2 44447  51.6279 148.3982 0093190  65.5140 295.5008 16.05888282   639
DRAGON CRS-18 DEB       
1 44448U 19044C   19210.98038223  .01834827  11563-4  14170-2 0  9998
2 44448  51.6442 147.8125 0095566  66.2027 295.0709 16.04671995   651
2019-045A               
1 44449U 19045A   19210.62858328 -.00020081  00000-0 -20314-2 0  9994
2 44449  34.9976 317.6566 0011221 330.6221  29.3796 14.90269914   521
2019-045B               
1 44450U 19045B   19210.62845489  .00033523  00000-0  33958-2 0  9991
2 44450  34.9919 317.6726 0009911 319.7968  39.4034 14.90003094   518
2019-045C               
1 44451U 19045C   19210.44223442 -.00027496  00000-0 -27052-2 0  9993
2 44451  34.9958 318.7487 0007450 332.9311 109.2721 14.91462101   454
CZ-2C R/B               
1 44452U 19045D   19209.91613562 -.00000187  00000-0 -67749-5 0  9998
2 44452  34.9831 321.2856 0103422  66.6465 294.5083 15.13635225   207
